[{"OBJECT_NAME":"STARLINK-31666","OBJECT_ID":"2024-076J","EPOCH":"2026-03-09T04:06:12.654720","MEAN_MOTION":15.27577145,"ECCENTRICITY":0.00011205,"INCLINATION":43.0036,"RA_OF_ASC_NODE":4.9544,"ARG_OF_PERICENTER":268.9882,"MEAN_ANOMALY":91.0841,"EPHEMERIS_TYPE":0,"CLASSIFICATION_TYPE":"U","NORAD_CAT_ID":59572,"ELEMENT_SET_NO":999,"REV_AT_EPOCH":10650,"BSTAR":-5.4722042e-5,"MEAN_MOTION_DOT":-1.767e-5,"MEAN_MOTION_DDOT":0},{"OBJECT_NAME":"FLOCK 4G-18","OBJECT_ID":"2025-009BZ","EPOCH":"2026-03-09T04:35:14.656704","MEAN_MOTION":15.27241676,"ECCENTRICITY":0.00041001,"INCLINATION":97.4054,"RA_OF_ASC_NODE":150.5008,"ARG_OF_PERICENTER":335.7331,"MEAN_ANOMALY":24.3715,"EPHEMERIS_TYPE":0,"CLASSIFICATION_TYPE":"U","NORAD_CAT_ID":62680,"ELEMENT_SET_NO":999,"REV_AT_EPOCH":12126,"BSTAR":0.0004431856,"MEAN_MOTION_DOT":0.00011766,"MEAN_MOTION_DDOT":0}]
